[{"OBJECT_NAME":"STARLINK-4715","OBJECT_ID":"2022-111AE","EPOCH":"2026-03-09T20:19:13.100160","MEAN_MOTION":15.08838323,"ECCENTRICITY":0.00013678,"INCLINATION":53.217,"RA_OF_ASC_NODE":263.1661,"ARG_OF_PERICENTER":93.2402,"MEAN_ANOMALY":266.8747,"EPHEMERIS_TYPE":0,"CLASSIFICATION_TYPE":"U","NORAD_CAT_ID":53801,"ELEMENT_SET_NO":999,"REV_AT_EPOCH":19384,"BSTAR":8.302481e-6,"MEAN_MOTION_DOT":-1.56e-6,"MEAN_MOTION_DDOT":0},{"OBJECT_NAME":"SL-12 DEB","OBJECT_ID":"2006-062M","EPOCH":"2026-03-08T00:46:20.799552","MEAN_MOTION":4.42836906,"ECCENTRICITY":0.55847788,"INCLINATION":65.0229,"RA_OF_ASC_NODE":346.6556,"ARG_OF_PERICENTER":234.3411,"MEAN_ANOMALY":60.2136,"EPHEMERIS_TYPE":0,"CLASSIFICATION_TYPE":"U","NORAD_CAT_ID":41807,"ELEMENT_SET_NO":999,"REV_AT_EPOCH":483,"BSTAR":0.00053055171,"MEAN_MOTION_DOT":1.21e-6,"MEAN_MOTION_DDOT":0}]
